TEVEL2-3                
1 63218U 25052J   26068.64540225  .00020365  00000+0  69446-3 0  9991
2 63218  97.3994 324.7775 0004761 105.7353 254.4413 15.30377031 54855
STARLINK-34259          
1 65368U 25190T   26068.55938691  .00026664  00000+0  90949-3 0  9990
2 65368  53.1573 168.8942 0001178  78.0466 282.0667 15.30187783 29735
